ONEWEB-0335             
1 49201U 21083R   26031.24395085  .00000314  00000+0  82589-3 0  9990
2 49201  87.9014 347.4552 0001972  79.9527 280.1825 13.13469103212940
ONEWEB-0336             
1 49202U 21083S   26031.29135458 -.00000187  00000+0 -54718-3 0  9995
2 49202  87.9017 347.4427 0002197  80.9859 279.1518 13.13471625212944
ONEWEB-0337             
1 49203U 21083T   26031.30136059  .00000014  00000+0  41154-5 0  9995
2 49203  87.9010 347.4522 0001944  85.6805 274.4546 13.13470217212941
ONEWEB-0338             
1 49204U 21083U   26031.30050529  .00000157  00000+0  35437-3 0  9996
2 49204  87.9220 301.7770 0001373  78.7087 281.4201 13.20770582218740
ONEWEB-0339             
1 49205U 21083V   26031.30997986  .00000258  00000+0  67264-3 0  9999
2 49205  87.9018 347.4344 0001539  85.3352 274.7953 13.13470284212924
ONEWEB-0340             
1 49206U 21083W   26031.17704307  .00000025  00000+0  30475-4 0  9995
2 49206  87.9207   2.6513 0001893  82.2373 277.8974 13.18686890211917
ONEWEB-0341             
1 49207U 21083X   26030.95602723 -.00000024  00000+0 -93266-4 0  9998
2 49207  87.9205   2.7057 0002075  97.7200 262.4167 13.18686235211909
ONEWEB-0342             
1 49208U 21083Y   26031.30682701  .00000166  00000+0  37754-3 0  9997
2 49208  87.9226 301.7509 0001515  77.4689 282.6613 13.20773978218711
ONEWEB-0343             
1 49209U 21083Z   26031.19188868  .00000118  00000+0  26599-3 0  9992
2 49209  87.9209   2.6526 0001732 101.3438 258.7889 13.18687075211989
ONEWEB-0344             
1 49210U 21083AA  26031.30489653  .00000046  00000+0  91579-4 0  9994
2 49210  87.9005 347.4633 0002009  92.0236 268.1123 13.13471805212922
ONEWEB-0345             
1 49211U 21083AB  26031.29642125 -.00000029  00000+0 -11402-3 0  9997
2 49211  87.9018 347.4286 0001947  91.5361 268.5991 13.13469803212937
ONEWEB-0346             
1 49212U 21083AC  26031.18859061  .00000034  00000+0  54240-4 0  9997
2 49212  87.9196   2.6649 0002447  75.5137 284.6267 13.18685105211920
ONEWEB-0348             
1 49213U 21083AD  26031.29736188  .00000054  00000+0  99954-4 0  9997
2 49213  87.9225 301.7561 0002220  81.1199 279.0186 13.20772647218746
ONEWEB-0350             
1 49214U 21083AE  26031.30573913  .00000180  00000+0  45897-3 0  9991
2 49214  87.9018 347.4263 0001991  88.8080 271.3277 13.13472955212965
ONEWEB-0351             
1 49215U 21083AF  26031.29091918  .00000113  00000+0  24700-3 0  9996
2 49215  87.9225 301.7556 0000990 106.9210 253.2032 13.20772451218707
ONEWEB-0352             
1 49216U 21083AG  26031.28627057 -.00000208  00000+0 -60463-3 0  9998
2 49216  87.9014 347.4475 0001426  88.7128 271.4165 13.13470136213050
ONEWEB-0354             
1 49217U 21083AH  26031.24054238  .00000128  00000+0  28317-3 0  9991
2 49217  87.9223 301.7650 0001900  82.8470 277.2879 13.20774226218734
