[{"OBJECT_NAME":"ONEWEB-0335","OBJECT_ID":"2021-083R","EPOCH":"2026-01-31T05:51:17.353440","MEAN_MOTION":13.13469103,"ECCENTRICITY":0.00019721,"INCLINATION":87.9014,"RA_OF_ASC_NODE":347.4552,"ARG_OF_PERICENTER":79.9527,"MEAN_ANOMALY":280.1825,"EPHEMERIS_TYPE":0,"CLASSIFICATION_TYPE":"U","NORAD_CAT_ID":49201,"ELEMENT_SET_NO":999,"REV_AT_EPOCH":21294,"BSTAR":0.00082589319,"MEAN_MOTION_DOT":3.14e-6,"MEAN_MOTION_DDOT":0},{"OBJECT_NAME":"ONEWEB-0336","OBJECT_ID":"2021-083S","EPOCH":"2026-01-31T06:59:33.035712","MEAN_MOTION":13.13471625,"ECCENTRICITY":0.00021971,"INCLINATION":87.9017,"RA_OF_ASC_NODE":347.4427,"ARG_OF_PERICENTER":80.9859,"MEAN_ANOMALY":279.1518,"EPHEMERIS_TYPE":0,"CLASSIFICATION_TYPE":"U","NORAD_CAT_ID":49202,"ELEMENT_SET_NO":999,"REV_AT_EPOCH":21294,"BSTAR":-0.00054717958,"MEAN_MOTION_DOT":-1.87e-6,"MEAN_MOTION_DDOT":0},{"OBJECT_NAME":"ONEWEB-0337","OBJECT_ID":"2021-083T","EPOCH":"2026-01-31T07:13:57.554976","MEAN_MOTION":13.13470217,"ECCENTRICITY":0.00019444,"INCLINATION":87.901,"RA_OF_ASC_NODE":347.4522,"ARG_OF_PERICENTER":85.6805,"MEAN_ANOMALY":274.4546,"EPHEMERIS_TYPE":0,"CLASSIFICATION_TYPE":"U","NORAD_CAT_ID":49203,"ELEMENT_SET_NO":999,"REV_AT_EPOCH":21294,"BSTAR":4.11536e-6,"MEAN_MOTION_DOT":1.4e-7,"MEAN_MOTION_DDOT":0},{"OBJECT_NAME":"ONEWEB-0338","OBJECT_ID":"2021-083U","EPOCH":"2026-01-31T07:12:43.657056","MEAN_MOTION":13.20770582,"ECCENTRICITY":0.0001373,"INCLINATION":87.922,"RA_OF_ASC_NODE":301.777,"ARG_OF_PERICENTER":78.7087,"MEAN_ANOMALY":281.4201,"EPHEMERIS_TYPE":0,"CLASSIFICATION_TYPE":"U","NORAD_CAT_ID":49204,"ELEMENT_SET_NO":999,"REV_AT_EPOCH":21874,"BSTAR":0.00035436701,"MEAN_MOTION_DOT":1.57e-6,"MEAN_MOTION_DDOT":0},{"OBJECT_NAME":"ONEWEB-0339","OBJECT_ID":"2021-083V","EPOCH":"2026-01-31T07:26:22.259904","MEAN_MOTION":13.13470284,"ECCENTRICITY":0.00015394,"INCLINATION":87.9018,"RA_OF_ASC_NODE":347.4344,"ARG_OF_PERICENTER":85.3352,"MEAN_ANOMALY":274.7953,"EPHEMERIS_TYPE":0,"CLASSIFICATION_TYPE":"U","NORAD_CAT_ID":49205,"ELEMENT_SET_NO":999,"REV_AT_EPOCH":21292,"BSTAR":0.00067264384,"MEAN_MOTION_DOT":2.58e-6,"MEAN_MOTION_DDOT":0},{"OBJECT_NAME":"ONEWEB-0340","OBJECT_ID":"2021-083W","EPOCH":"2026-01-31T04:14:56.521248","MEAN_MOTION":13.1868689,"ECCENTRICITY":0.0001893,"INCLINATION":87.9207,"RA_OF_ASC_NODE":2.6513,"ARG_OF_PERICENTER":82.2373,"MEAN_ANOMALY":277.8974,"EPHEMERIS_TYPE":0,"CLASSIFICATION_TYPE":"U","NORAD_CAT_ID":49206,"ELEMENT_SET_NO":999,"REV_AT_EPOCH":21191,"BSTAR":3.0475399e-5,"MEAN_MOTION_DOT":2.5e-7,"MEAN_MOTION_DDOT":0},{"OBJECT_NAME":"ONEWEB-0341","OBJECT_ID":"2021-083X","EPOCH":"2026-01-30T22:56:40.752672","MEAN_MOTION":13.18686235,"ECCENTRICITY":0.0002075,"INCLINATION":87.9205,"RA_OF_ASC_NODE":2.7057,"ARG_OF_PERICENTER":97.72,"MEAN_ANOMALY":262.4167,"EPHEMERIS_TYPE":0,"CLASSIFICATION_TYPE":"U","NORAD_CAT_ID":49207,"ELEMENT_SET_NO":999,"REV_AT_EPOCH":21190,"BSTAR":-9.3266e-5,"MEAN_MOTION_DOT":-2.4e-7,"MEAN_MOTION_DDOT":0},{"OBJECT_NAME":"ONEWEB-0342","OBJECT_ID":"2021-083Y","EPOCH":"2026-01-31T07:21:49.853664","MEAN_MOTION":13.20773978,"ECCENTRICITY":0.0001515,"INCLINATION":87.9226,"RA_OF_ASC_NODE":301.7509,"ARG_OF_PERICENTER":77.4689,"MEAN_ANOMALY":282.6613,"EPHEMERIS_TYPE":0,"CLASSIFICATION_TYPE":"U","NORAD_CAT_ID":49208,"ELEMENT_SET_NO":999,"REV_AT_EPOCH":21871,"BSTAR":0.00037754051,"MEAN_MOTION_DOT":1.66e-6,"MEAN_MOTION_DDOT":0},{"OBJECT_NAME":"ONEWEB-0343","OBJECT_ID":"2021-083Z","EPOCH":"2026-01-31T04:36:19.181952","MEAN_MOTION":13.18687075,"ECCENTRICITY":0.00017328,"INCLINATION":87.9209,"RA_OF_ASC_NODE":2.6526,"ARG_OF_PERICENTER":101.3438,"MEAN_ANOMALY":258.7889,"EPHEMERIS_TYPE":0,"CLASSIFICATION_TYPE":"U","NORAD_CAT_ID":49209,"ELEMENT_SET_NO":999,"REV_AT_EPOCH":21198,"BSTAR":0.00026598795,"MEAN_MOTION_DOT":1.18e-6,"MEAN_MOTION_DDOT":0},{"OBJECT_NAME":"ONEWEB-0344","OBJECT_ID":"2021-083AA","EPOCH":"2026-01-31T07:19:03.060192","MEAN_MOTION":13.13471805,"ECCENTRICITY":0.00020094,"INCLINATION":87.9005,"RA_OF_ASC_NODE":347.4633,"ARG_OF_PERICENTER":92.0236,"MEAN_ANOMALY":268.1123,"EPHEMERIS_TYPE":0,"CLASSIFICATION_TYPE":"U","NORAD_CAT_ID":49210,"ELEMENT_SET_NO":999,"REV_AT_EPOCH":21292,"BSTAR":9.1579424e-5,"MEAN_MOTION_DOT":4.6e-7,"MEAN_MOTION_DDOT":0},{"OBJECT_NAME":"ONEWEB-0345","OBJECT_ID":"2021-083AB","EPOCH":"2026-01-31T07:06:50.796000","MEAN_MOTION":13.13469803,"ECCENTRICITY":0.00019473,"INCLINATION":87.9018,"RA_OF_ASC_NODE":347.4286,"ARG_OF_PERICENTER":91.5361,"MEAN_ANOMALY":268.5991,"EPHEMERIS_TYPE":0,"CLASSIFICATION_TYPE":"U","NORAD_CAT_ID":49211,"ELEMENT_SET_NO":999,"REV_AT_EPOCH":21293,"BSTAR":-0.00011402451,"MEAN_MOTION_DOT":-2.9e-7,"MEAN_MOTION_DDOT":0},{"OBJECT_NAME":"ONEWEB-0346","OBJECT_ID":"2021-083AC","EPOCH":"2026-01-31T04:31:34.228704","MEAN_MOTION":13.18685105,"ECCENTRICITY":0.00024472,"INCLINATION":87.9196,"RA_OF_ASC_NODE":2.6649,"ARG_OF_PERICENTER":75.5137,"MEAN_ANOMALY":284.6267,"EPHEMERIS_TYPE":0,"CLASSIFICATION_TYPE":"U","NORAD_CAT_ID":49212,"ELEMENT_SET_NO":999,"REV_AT_EPOCH":21192,"BSTAR":5.4240124e-5,"MEAN_MOTION_DOT":3.4e-7,"MEAN_MOTION_DDOT":0},{"OBJECT_NAME":"ONEWEB-0348","OBJECT_ID":"2021-083AD","EPOCH":"2026-01-31T07:08:12.066432","MEAN_MOTION":13.20772647,"ECCENTRICITY":0.00022202,"INCLINATION":87.9225,"RA_OF_ASC_NODE":301.7561,"ARG_OF_PERICENTER":81.1199,"MEAN_ANOMALY":279.0186,"EPHEMERIS_TYPE":0,"CLASSIFICATION_TYPE":"U","NORAD_CAT_ID":49213,"ELEMENT_SET_NO":999,"REV_AT_EPOCH":21874,"BSTAR":9.9953885e-5,"MEAN_MOTION_DOT":5.4e-7,"MEAN_MOTION_DDOT":0},{"OBJECT_NAME":"ONEWEB-0350","OBJECT_ID":"2021-083AE","EPOCH":"2026-01-31T07:20:15.860832","MEAN_MOTION":13.13472955,"ECCENTRICITY":0.00019911,"INCLINATION":87.9018,"RA_OF_ASC_NODE":347.4263,"ARG_OF_PERICENTER":88.808,"MEAN_ANOMALY":271.3277,"EPHEMERIS_TYPE":0,"CLASSIFICATION_TYPE":"U","NORAD_CAT_ID":49214,"ELEMENT_SET_NO":999,"REV_AT_EPOCH":21296,"BSTAR":0.00045897109,"MEAN_MOTION_DOT":1.8e-6,"MEAN_MOTION_DDOT":0},{"OBJECT_NAME":"ONEWEB-0351","OBJECT_ID":"2021-083AF","EPOCH":"2026-01-31T06:58:55.417152","MEAN_MOTION":13.20772451,"ECCENTRICITY":9.909e-5,"INCLINATION":87.9225,"RA_OF_ASC_NODE":301.7556,"ARG_OF_PERICENTER":106.921,"MEAN_ANOMALY":253.2032,"EPHEMERIS_TYPE":0,"CLASSIFICATION_TYPE":"U","NORAD_CAT_ID":49215,"ELEMENT_SET_NO":999,"REV_AT_EPOCH":21870,"BSTAR":0.00024700035,"MEAN_MOTION_DOT":1.13e-6,"MEAN_MOTION_DDOT":0},{"OBJECT_NAME":"ONEWEB-0352","OBJECT_ID":"2021-083AG","EPOCH":"2026-01-31T06:52:13.777248","MEAN_MOTION":13.13470136,"ECCENTRICITY":0.00014269,"INCLINATION":87.9014,"RA_OF_ASC_NODE":347.4475,"ARG_OF_PERICENTER":88.7128,"MEAN_ANOMALY":271.4165,"EPHEMERIS_TYPE":0,"CLASSIFICATION_TYPE":"U","NORAD_CAT_ID":49216,"ELEMENT_SET_NO":999,"REV_AT_EPOCH":21305,"BSTAR":-0.00060462563,"MEAN_MOTION_DOT":-2.08e-6,"MEAN_MOTION_DDOT":0},{"OBJECT_NAME":"ONEWEB-0354","OBJECT_ID":"2021-083AH","EPOCH":"2026-01-31T05:46:22.861632","MEAN_MOTION":13.20774226,"ECCENTRICITY":0.00019005,"INCLINATION":87.9223,"RA_OF_ASC_NODE":301.765,"ARG_OF_PERICENTER":82.847,"MEAN_ANOMALY":277.2879,"EPHEMERIS_TYPE":0,"CLASSIFICATION_TYPE":"U","NORAD_CAT_ID":49217,"ELEMENT_SET_NO":999,"REV_AT_EPOCH":21873,"BSTAR":0.00028317266,"MEAN_MOTION_DOT":1.28e-6,"MEAN_MOTION_DDOT":0}]
